STARLINK-2057_new
1 17666C 21012AY  21326.13748198  .00008157  00000-0  54660-3 0  3269
2 17666  53.0549 248.1192 0002240  60.2538 268.2079 15.06386221    15
STARLINK-2057_old
1 27666C 21012AY  21325.16387763  .00005209  00000-0  34891-3 0  3256
2 27666  53.0550 252.4896 0002294  60.0928  25.5140 15.06404462    17
